{
  "type": "FeatureCollection",
  "features": [
    {
      "type": "Feature",
      "properties": {
        "norad_id": 37781,
        "name": "HAIYANG-2A",
        "group": "resource",
        "lat": -46.8973510475273,
        "lon": 156.48697801914653,
        "alt_km": 975.7215979669372,
        "timestamp": "2025-12-11T15:53:39.198969+00:00",
        "meta_object_name": "HAIYANG-2A",
        "meta_object_id": "2011-043A",
        "meta_epoch": "2025-12-11T06:05:09.826080",
        "meta_mean_motion": 13.78836003,
        "meta_eccentricity": 0.00016652,
        "meta_inclination": 99.3381,
        "meta_ra_of_asc_node": 346.2107,
        "meta_arg_of_pericenter": 84.0263,
        "meta_mean_anomaly": 276.1079,
        "meta_ephemeris_type": 0,
        "meta_classification_type": "U",
        "meta_norad_cat_id": 37781,
        "meta_element_set_no": 999,
        "meta_rev_at_epoch": 72078,
        "meta_bstar": 0.00034621644,
        "meta_mean_motion_dot": 3.08e-06,
        "meta_mean_motion_ddot": 0,
        "tle_line1": "1 37781U 11043A   25345.25358595  .00000308  00000+0  34622-3 0  9996",
        "tle_line2": "2 37781  99.3381 346.2107 0001665  84.0263 276.1079 13.78836003720780"
      },
      "geometry": {
        "type": "Point",
        "coordinates": [
          156.48697801914653,
          -46.8973510475273
        ]
      }
    },
    {
      "type": "Feature",
      "properties": {
        "norad_id": 37791,
        "name": "RASAT",
        "group": "resource",
        "lat": -0.987671866724761,
        "lon": 75.07577438608014,
        "alt_km": 665.3244540573369,
        "timestamp": "2025-12-11T15:53:39.198979+00:00",
        "meta_object_name": "RASAT",
        "meta_object_id": "2011-044D",
        "meta_epoch": "2025-12-11T06:25:21.855648",
        "meta_mean_motion": 14.679064,
        "meta_eccentricity": 0.00219003,
        "meta_inclination": 98.0648,
        "meta_ra_of_asc_node": 74.547,
        "meta_arg_of_pericenter": 69.3727,
        "meta_mean_anomaly": 5.7469,
        "meta_ephemeris_type": 0,
        "meta_classification_type": "U",
        "meta_norad_cat_id": 37791,
        "meta_element_set_no": 999,
        "meta_rev_at_epoch": 76561,
        "meta_bstar": 0.00018488408,
        "meta_mean_motion_dot": 1.012e-05,
        "meta_mean_motion_ddot": 0,
        "tle_line1": "1 37791U 11044D   25345.26761407  .00001012  00000+0  18488-3 0  9994",
        "tle_line2": "2 37791  98.0648  74.5470 0021900  69.3727   5.7469 14.67906400765610"
      },
      "geometry": {
        "type": "Point",
        "coordinates": [
          75.07577438608014,
          -0.987671866724761
        ]
      }
    },
    {
      "type": "Feature",
      "properties": {
        "norad_id": 37841,
        "name": "SRMSAT",
        "group": "resource",
        "lat": -4.235924290462444,
        "lon": 102.7086641657883,
        "alt_km": 846.5390450104551,
        "timestamp": "2025-12-11T15:53:39.198989+00:00",
        "meta_object_name": "SRMSAT",
        "meta_object_id": "2011-058D",
        "meta_epoch": "2025-12-10T16:20:28.552992",
        "meta_mean_motion": 14.11510466,
        "meta_eccentricity": 0.00117159,
        "meta_inclination": 19.9705,
        "meta_ra_of_asc_node": 120.4116,
        "meta_arg_of_pericenter": 290.6404,
        "meta_mean_anomaly": 99.2293,
        "meta_ephemeris_type": 0,
        "meta_classification_type": "U",
        "meta_norad_cat_id": 37841,
        "meta_element_set_no": 999,
        "meta_rev_at_epoch": 73115,
        "meta_bstar": 0.00014227219,
        "meta_mean_motion_dot": 5.27e-06,
        "meta_mean_motion_ddot": 0,
        "tle_line1": "1 37841U 11058D   25344.68088603  .00000527  00000+0  14227-3 0  9997",
        "tle_line2": "2 37841  19.9705 120.4116 0011715 290.6404  99.2293 14.11510466731151"
      },
      "geometry": {
        "type": "Point",
        "coordinates": [
          102.7086641657883,
          -4.235924290462444
        ]
      }
    },
    {
      "type": "Feature",
      "properties": {
        "norad_id": 38012,
        "name": "PLEIADES 1A",
        "group": "resource",
        "lat": -10.711703208473734,
        "lon": -123.11256019272108,
        "alt_km": 702.5290641707006,
        "timestamp": "2025-12-11T15:53:39.198999+00:00",
        "meta_object_name": "PLEIADES 1A",
        "meta_object_id": "2011-076F",
        "meta_epoch": "2025-12-11T07:06:53.954784",
        "meta_mean_motion": 14.58558719,
        "meta_eccentricity": 0.00012994,
        "meta_inclination": 98.182,
        "meta_ra_of_asc_node": 58.0869,
        "meta_arg_of_pericenter": 73.8284,
        "meta_mean_anomaly": 357.2456,
        "meta_ephemeris_type": 0,
        "meta_classification_type": "U",
        "meta_norad_cat_id": 38012,
        "meta_element_set_no": 999,
        "meta_rev_at_epoch": 74460,
        "meta_bstar": 0.00012325805,
        "meta_mean_motion_dot": 5.27e-06,
        "meta_mean_motion_ddot": 0,
        "tle_line1": "1 38012U 11076F   25345.29645781  .00000527  00000+0  12326-3 0  9990",
        "tle_line2": "2 38012  98.1820  58.0869 0001299  73.8284 357.2456 14.58558719744609"
      },
      "geometry": {
        "type": "Point",
        "coordinates": [
          -123.11256019272108,
          -10.711703208473734
        ]
      }
    },
    {
      "type": "Feature",
      "properties": {
        "norad_id": 38038,
        "name": "ZIYUAN 1-02C (ZY 1-02C)",
        "group": "resource",
        "lat": 1.7523704188718987,
        "lon": -128.04458352432775,
        "alt_km": 763.7568832556062,
        "timestamp": "2025-12-11T15:53:39.199010+00:00",
        "meta_object_name": "ZIYUAN 1-02C (ZY 1-02C)",
        "meta_object_id": "2011-079A",
        "meta_epoch": "2025-12-11T07:02:24.043776",
        "meta_mean_motion": 14.38009185,
        "meta_eccentricity": 0.00070833,
        "meta_inclination": 98.433,
        "meta_ra_of_asc_node": 51.3333,
        "meta_arg_of_pericenter": 142.1823,
        "meta_mean_anomaly": 287.1165,
        "meta_ephemeris_type": 0,
        "meta_classification_type": "U",
        "meta_norad_cat_id": 38038,
        "meta_element_set_no": 999,
        "meta_rev_at_epoch": 73220,
        "meta_bstar": 0.00024204776,
        "meta_mean_motion_dot": 6.89e-06,
        "meta_mean_motion_ddot": 0,
        "tle_line1": "1 38038U 11079A   25345.29333384  .00000689  00000+0  24205-3 0  9992",
        "tle_line2": "2 38038  98.4330  51.3333 0007083 142.1823 287.1165 14.38009185732201"
      },
      "geometry": {
        "type": "Point",
        "coordinates": [
          -128.04458352432775,
          1.7523704188718987
        ]
      }
    },
    {
      "type": "Feature",
      "properties": {
        "norad_id": 38046,
        "name": "ZIYUAN 3-1 (ZY 3-1)",
        "group": "resource",
        "lat": -8.369583081036565,
        "lon": -129.0077943569315,
        "alt_km": 368.7223244730867,
        "timestamp": "2025-12-11T15:53:39.199021+00:00",
        "meta_object_name": "ZIYUAN 3-1 (ZY 3-1)",
        "meta_object_id": "2012-001A",
        "meta_epoch": "2025-12-11T07:26:14.849376",
        "meta_mean_motion": 15.68313334,
        "meta_eccentricity": 0.00018389,
        "meta_inclination": 97.1754,
        "meta_ra_of_asc_node": 51.6937,
        "meta_arg_of_pericenter": 358.3727,
        "meta_mean_anomaly": 1.7528,
        "meta_ephemeris_type": 0,
        "meta_classification_type": "U",
        "meta_norad_cat_id": 38046,
        "meta_element_set_no": 999,
        "meta_rev_at_epoch": 77474,
        "meta_bstar": 0.0018603513,
        "meta_mean_motion_dot": 0.00213225,
        "meta_mean_motion_ddot": 0,
        "tle_line1": "1 38046U 12001A   25345.30989409  .00213225  00000+0  18604-2 0  9991",
        "tle_line2": "2 38046  97.1754  51.6937 0001838 358.3727   1.7528 15.68313334774741"
      },
      "geometry": {
        "type": "Point",
        "coordinates": [
          -129.0077943569315,
          -8.369583081036565
        ]
      }
    },
    {
      "type": "Feature",
      "properties": {
        "norad_id": 38338,
        "name": "ARIRANG-3 (KOMPSAT-3)",
        "group": "resource",
        "lat": 73.69927443512165,
        "lon": -89.83218736586926,
        "alt_km": 680.8164246109855,
        "timestamp": "2025-12-11T15:53:39.199031+00:00",
        "meta_object_name": "ARIRANG-3 (KOMPSAT-3)",
        "meta_object_id": "2012-025B",
        "meta_epoch": "2025-12-11T07:20:01.979808",
        "meta_mean_motion": 14.61713745,
        "meta_eccentricity": 0.00054654,
        "meta_inclination": 98.332,
        "meta_ra_of_asc_node": 299.8842,
        "meta_arg_of_pericenter": 343.5149,
        "meta_mean_anomaly": 16.5874,
        "meta_ephemeris_type": 0,
        "meta_classification_type": "U",
        "meta_norad_cat_id": 38338,
        "meta_element_set_no": 999,
        "meta_rev_at_epoch": 72389,
        "meta_bstar": 0.00032308265,
        "meta_mean_motion_dot": 1.561e-05,
        "meta_mean_motion_ddot": 0,
        "tle_line1": "1 38338U 12025B   25345.30557847  .00001561  00000+0  32308-3 0  9994",
        "tle_line2": "2 38338  98.3320 299.8842 0005465 343.5149  16.5874 14.61713745723892"
      },
      "geometry": {
        "type": "Point",
        "coordinates": [
          -89.83218736586926,
          73.69927443512165
        ]
      }
    }
  ]
}